STARLINK-2022           
1 47643U 21012Z   24005.18185078  .00001131  00000+0  94863-4 0  9998
2 47643  53.0569  18.3070 0001483  95.2223 264.8935 15.06377403159998
